{
    "links": {
        "self": "http://www.neowsapp.com/rest/v1/neo/3578625?api_key=iIulBulltgU6a56xZRHN4H3l9WmuAYTsLGpBGhQ2"
    },
    "id": "3578625",
    "neo_reference_id": "3578625",
    "name": "(2011 SN5)",
    "designation": "2011 SN5",
    "nasa_jpl_url": "http://ssd.jpl.nasa.gov/sbdb.cgi?sstr=3578625",
    "absolute_magnitude_h": 23.5,
    "estimated_diameter": {
        "kilometers": {
            "estimated_diameter_min": 0.0530340723,
            "estimated_diameter_max": 0.1185877909
        },
        "meters": {
            "estimated_diameter_min": 53.0340723319,
            "estimated_diameter_max": 118.5877908577
        },
        "miles": {
            "estimated_diameter_min": 0.0329538346,
            "estimated_diameter_max": 0.0736870142
        },
        "feet": {
            "estimated_diameter_min": 173.9963058693,
            "estimated_diameter_max": 389.0675677576
        }
    },
    "is_potentially_hazardous_asteroid": false,
    "close_approach_data": [
        {
            "close_approach_date": "2011-08-25",
            "close_approach_date_full": "2011-Aug-25 09:24",
            "epoch_date_close_approach": 1314264240000,
            "relative_velocity": {
                "kilometers_per_second": "9.9538313508",
                "kilometers_per_hour": "35833.7928629823",
                "miles_per_hour": "22265.7253486681"
            },
            "miss_distance": {
                "astronomical": "0.1789953422",
                "lunar": "69.6291881158",
                "kilometers": "26777321.933041114",
                "miles": "16638656.3044468132"
            },
            "orbiting_body": "Earth"
        }
    ],
    "orbital_data": {
        "orbit_id": "5",
        "orbit_determination_date": "2019-07-16 06:14:41",
        "first_observation_date": "2011-09-18",
        "last_observation_date": "2011-09-21",
        "data_arc_in_days": 3,
        "observations_used": 20,
        "orbit_uncertainty": "9",
        "minimum_orbit_intersection": ".167164",
        "jupiter_tisserand_invariant": "3.756",
        "epoch_osculation": "2455825.5",
        "eccentricity": ".4502999976817161",
        "semi_major_axis": "1.917898078729241",
        "inclination": "15.8097622082307",
        "ascending_node_longitude": "176.7502956443353",
        "orbital_period": "970.1451413790036",
        "perihelion_distance": "1.054268578323696",
        "perihelion_argument": "118.0604723029524",
        "aphelion_distance": "2.781527579134786",
        "perihelion_time": "2455760.896248446781",
        "mean_anomaly": "23.97306296468166",
        "mean_motion": ".3710784960364605",
        "equinox": "J2000",
        "orbit_class": {
            "orbit_class_type": "AMO",
            "orbit_class_description": "Near-Earth asteroid orbits similar to that of 1221 Amor",
            "orbit_class_range": "1.017 AU < q (perihelion) < 1.3 AU"
        }
    },
    "is_sentry_object": false
}